{"type":"FeatureCollection","features":[{"type":"Feature","properties":{"shapeName":"Baalbek-Hermel"},"geometry":{"type":"Polygon","coordinates":[[[36.06477,33.81785],[36.0726,33.81807],[36.08026,33.81574],[36.08791,33.82067],[36.09643,33.82246],[36.10462,33.8264],[36.10774,33.83338],[36.10699,33.83983],[36.10915,33.84225],[36.13135,33.83562],[36.13825,33.84377],[36.14246,33.85854],[36.14515,33.86096],[36.15302,33.85962],[36.15712,33.85442],[36.17383,33.84234],[36.17954,33.84314],[36.18342,33.84672],[36.18827,33.84583],[36.19506,33.83589],[36.20617,33.83222],[36.21048,33.83428],[36.21242,33.83965],[36.21878,33.84502],[36.22126,33.85066],[36.22428,33.8504],[36.22913,33.84601],[36.2329,33.84601],[36.23635,33.85783],[36.23861,33.85908],[36.25554,33.85362],[36.26017,33.85532],[36.27555,33.85279],[36.29514,33.84224],[36.30832,33.83995],[36.3148,33.83634],[36.32377,33.83737],[36.32736,33.83525],[36.33281,33.83623],[36.34102,33.83411],[36.35434,33.83829],[36.35951,33.8384],[36.38255,33.83388],[36.39208,33.84505],[36.39235,33.84729],[36.37862,33.85835],[36.37359,33.87645],[36.36172,33.88716],[36.35889,33.89638],[36.35503,33.89907],[36.34937,33.89959],[36.33768,33.89532],[36.33194,33.89565],[36.32448,33.89854],[36.31754,33.89858],[36.30302,33.89305],[36.29529,33.89554],[36.29025,33.89211],[36.2799,33.88835],[36.27408,33.88862],[36.26201,33.89255],[36.26222,33.89658],[36.26891,33.90526],[36.28756,33.92333],[36.29607,33.93988],[36.30782,33.95365],[36.31451,33.95767],[36.32119,33.97001],[36.32787,33.97466],[36.33628,33.97672],[36.33952,33.98405],[36.34749,33.99191],[36.34933,33.99245],[36.35612,33.98789],[36.3586,33.98923],[36.36352,33.99793],[36.37717,34.01187],[36.38442,34.03394],[36.38635,34.03537],[36.3918,34.03302],[36.39656,34.03337],[36.39914,34.03931],[36.39605,34.04509],[36.40281,34.05142],[36.40925,34.04794],[36.41363,34.04816],[36.42206,34.05822],[36.43306,34.05932],[36.45162,34.04983],[36.47073,34.0468],[36.47528,34.04772],[36.48321,34.05372],[36.4928,34.0548],[36.49723,34.06597],[36.50758,34.08017],[36.50671,34.08758],[36.5024,34.09562],[36.50186,34.10088],[36.5233,34.12148],[36.53448,34.12868],[36.54041,34.13513],[36.54627,34.13799],[36.55379,34.13696],[36.55855,34.14004],[36.56821,34.15078],[36.56601,34.15557],[36.56621,34.15969],[36.57773,34.16802],[36.58277,34.17504],[36.58387,34.18457],[36.59446,34.19162],[36.59975,34.19715],[36.61473,34.20098],[36.61915,34.20535],[36.61376,34.21373],[36.61538,34.21926],[36.61419,34.23334],[36.60643,34.24002],[36.59684,34.26025],[36.58929,34.268],[36.5867,34.28405],[36.59257,34.29192],[36.59188,34.29591],[36.57415,34.30132],[36.55361,34.31298],[36.55447,34.31912],[36.5604,34.32909],[36.55857,34.33194],[36.54671,34.33995],[36.53015,34.36892],[36.53161,34.3761],[36.55673,34.39663],[36.559,34.40259],[36.55706,34.40935],[36.56115,34.42234],[36.54731,34.42764],[36.53758,34.42661],[36.51385,34.43873],[36.51054,34.44277],[36.5095,34.4471],[36.49888,34.45131],[36.49543,34.45483],[36.49736,34.45876],[36.50233,34.46285],[36.46955,34.4624],[36.46376,34.46655],[36.46155,34.47622],[36.45914,34.47816],[36.4483,34.48128],[36.44341,34.48083],[36.43844,34.47844],[36.44561,34.48777],[36.45058,34.50568],[36.44886,34.5067],[36.43204,34.50836],[36.4229,34.51203],[36.4174,34.51233],[36.41326,34.51057],[36.40208,34.50016],[36.39297,34.49874],[36.38876,34.49903],[36.37821,34.50323],[36.36068,34.50329],[36.35192,34.5071],[36.34976,34.50964],[36.33844,34.5046],[36.33659,34.50598],[36.33339,34.51778],[36.32935,34.51875],[36.32244,34.51265],[36.32025,34.51223],[36.31773,34.51403],[36.31486,34.51306],[36.30543,34.50529],[36.30341,34.49807],[36.29499,34.4922],[36.28723,34.48056],[36.28733,34.47818],[36.28734,34.47781],[36.28842,34.47301],[36.28659,34.46981],[36.27904,34.46288],[36.27099,34.44749],[36.26481,34.44154],[36.26255,34.42518],[36.25964,34.41922],[36.25511,34.41478],[36.25568,34.41216],[36.24291,34.40339],[36.23829,34.39192],[36.22686,34.37608],[36.22341,34.37324],[36.21242,34.37039],[36.19323,34.35348],[36.18277,34.34779],[36.179,34.34342],[36.16132,34.33871],[36.14979,34.31752],[36.13791,34.30736],[36.13825,34.29659],[36.13491,34.29],[36.12122,34.27753],[36.12046,34.27477],[36.10731,34.2688],[36.09265,34.25054],[36.08112,34.24082],[36.07756,34.23459],[36.06042,34.2156],[36.04975,34.20615],[36.03832,34.20134],[36.02679,34.18885],[36.01538,34.17116],[36.0053,34.16808],[36.00744,34.16665],[36.03166,34.16454],[36.01889,34.14633],[36.01586,34.13884],[36.01503,34.13713],[36.01299,34.12962],[36.00555,34.11811],[36.00253,34.11035],[36.00224,34.09941],[35.99837,34.08853],[35.98439,34.08616],[35.98034,34.08225],[35.97281,34.05097],[35.9675,34.04154],[35.96536,34.03903],[35.95812,34.03873],[35.93688,34.01416],[35.92341,34.00952],[35.91025,34.00049],[35.90411,33.99397],[35.89775,33.98306],[35.89883,33.96751],[35.87597,33.94864],[35.87588,33.94824],[35.87558,33.94696],[35.8845,33.94068],[35.89815,33.93425],[35.89952,33.9328],[35.90746,33.93311],[35.91853,33.91898],[35.93831,33.91159],[35.94168,33.91171],[35.94946,33.91563],[35.95705,33.9143],[35.95936,33.91117],[35.96479,33.90804],[35.96875,33.899],[35.97568,33.89709],[35.97795,33.88875],[35.97662,33.88457],[35.98384,33.87812],[35.99397,33.86183],[36.00802,33.87063],[36.01351,33.87838],[36.02809,33.88348],[36.03391,33.87877],[36.03211,33.87514],[36.04346,33.86855],[36.06014,33.87059],[36.06742,33.87368],[36.07124,33.87214],[36.07511,33.86772],[36.07898,33.86737],[36.08738,33.86959],[36.08918,33.86874],[36.0913,33.86274],[36.08471,33.85909],[36.0705,33.83034],[36.06618,33.8261],[36.06477,33.81785]]]}},{"type":"Feature","properties":{"shapeName":"Beyrouth"},"geometry":{"type":"Polygon","coordinates":[[[35.54023,33.90238],[35.52832,33.90544],[35.51691,33.90543],[35.50773,33.90875],[35.49262,33.90348],[35.48476,33.90485],[35.47523,33.90342],[35.46827,33.89712],[35.4682,33.89248],[35.46935,33.88888],[35.477,33.88262],[35.47991,33.8734],[35.47966,33.86899],[35.49827,33.86896],[35.50383,33.86476],[35.51023,33.86434],[35.51865,33.87469],[35.53213,33.88113],[35.53583,33.89707],[35.54023,33.90238]]]}},{"type":"Feature","properties":{"shapeName":"Liban-Nord"},"geometry":{"type":"Polygon","coordinates":[[[36.28733,34.47818],[36.26957,34.46665],[36.25984,34.45811],[36.24681,34.4572],[36.24171,34.45364],[36.2421,34.43494],[36.24767,34.42438],[36.24343,34.41713],[36.23788,34.41528],[36.22859,34.42026],[36.21975,34.41553],[36.21276,34.41765],[36.20553,34.41748],[36.18202,34.41139],[36.17669,34.41135],[36.16549,34.41711],[36.1431,34.41969],[36.13243,34.43456],[36.12261,34.44366],[36.11758,34.44528],[36.11035,34.44346],[36.09943,34.44447],[36.08545,34.44215],[36.06742,34.44538],[36.05025,34.44356],[36.04326,34.44114],[36.02854,34.44275],[36.01563,34.43876],[35.98776,34.44245],[35.98651,34.44393],[35.98992,34.44986],[35.98561,34.48199],[35.98868,34.49139],[35.98169,34.49958],[35.97285,34.49564],[35.96562,34.49756],[35.96157,34.50251],[35.96047,34.50908],[35.95584,34.51483],[35.94162,34.50668],[35.93817,34.50029],[35.92955,34.49265],[35.92545,34.48607],[35.90747,34.47042],[35.89202,34.46917],[35.87946,34.46354],[35.8528,34.4571],[35.83997,34.45781],[35.83339,34.45479],[35.82391,34.45968],[35.81679,34.45425],[35.81377,34.4547],[35.81032,34.45745],[35.80763,34.45603],[35.80482,34.44919],[35.80914,34.43407],[35.80827,34.43114],[35.8141,34.42749],[35.81798,34.42216],[35.81841,34.4154],[35.81614,34.409],[35.77535,34.3846],[35.76749,34.38187],[35.7383,34.37749],[35.73444,34.36598],[35.7283,34.36063],[35.72975,34.35345],[35.72664,34.34542],[35.72878,34.33995],[35.72809,34.33568],[35.72105,34.32189],[35.71999,34.31503],[35.71406,34.30674],[35.705,34.30514],[35.70187,34.3063],[35.69681,34.31164],[35.69012,34.31378],[35.68333,34.31307],[35.67697,34.30915],[35.67255,34.30185],[35.669,34.29098],[35.65863,34.28193],[35.65458,34.27636],[35.65526,34.27149],[35.66014,34.26495],[35.65913,34.25799],[35.65661,34.2552],[35.66115,34.24323],[35.64845,34.21211],[35.66683,34.20831],[35.68152,34.20962],[35.68283,34.2034],[35.69454,34.19367],[35.71524,34.19385],[35.72063,34.19242],[35.73568,34.18235],[35.74396,34.18006],[35.74838,34.1848],[35.75403,34.18389],[35.75776,34.18537],[35.76486,34.19273],[35.77376,34.19604],[35.77721,34.1961],[35.78832,34.19228],[35.78991,34.18999],[35.78922,34.18566],[35.7935,34.18041],[35.79943,34.18258],[35.80792,34.18121],[35.80964,34.18275],[35.80778,34.19182],[35.80992,34.19365],[35.81902,34.18771],[35.83727,34.18957],[35.84568,34.18377],[35.86433,34.17441],[35.86566,34.17116],[35.8629,34.16625],[35.86483,34.15997],[35.87727,34.152],[35.88822,34.15025],[35.90131,34.1505],[35.90691,34.15612],[35.91489,34.15639],[35.91694,34.15469],[35.92276,34.15443],[35.93699,34.16575],[35.94604,34.16608],[35.9786,34.15403],[36.00339,34.14747],[36.01503,34.13713],[36.01586,34.13884],[36.01889,34.14633],[36.03166,34.16454],[36.00744,34.16665],[36.0053,34.16808],[36.01538,34.17116],[36.02679,34.18885],[36.03832,34.20134],[36.04975,34.20615],[36.06042,34.2156],[36.07756,34.23459],[36.08112,34.24082],[36.09265,34.25054],[36.10731,34.2688],[36.12046,34.27477],[36.12122,34.27753],[36.13491,34.29],[36.13825,34.29659],[36.13791,34.30736],[36.14979,34.31752],[36.16132,34.33871],[36.179,34.34342],[36.18277,34.34779],[36.19323,34.35348],[36.21242,34.37039],[36.22341,34.37324],[36.22686,34.37608],[36.23829,34.39192],[36.24291,34.40339],[36.25568,34.41216],[36.25511,34.41478],[36.25964,34.41922],[36.26255,34.42518],[36.26481,34.44154],[36.27099,34.44749],[36.27904,34.46288],[36.28659,34.46981],[36.28842,34.47301],[36.28734,34.47781],[36.28733,34.47818]]]}},{"type":"Feature","properties":{"shapeName":"Mont-Liban"},"geometry":{"type":"Polygon","coordinates":[[[35.87588,33.94824],[35.8629,33.95552],[35.83005,33.96856],[35.82653,33.97519],[35.82206,33.97815],[35.81276,33.97931],[35.80799,33.97794],[35.80201,33.96861],[35.79412,33.96965],[35.78513,33.96598],[35.77441,33.9658],[35.77244,33.963],[35.77299,33.95772],[35.76946,33.95486],[35.76302,33.95545],[35.74811,33.96411],[35.74301,33.96489],[35.72359,33.95448],[35.71274,33.9534],[35.70505,33.94881],[35.68933,33.94719],[35.68319,33.94301],[35.66388,33.94008],[35.63633,33.94412],[35.62769,33.94737],[35.60987,33.94639],[35.60328,33.95388],[35.59678,33.95813],[35.59138,33.9507],[35.58351,33.92181],[35.57413,33.90705],[35.5627,33.89971],[35.55462,33.89756],[35.54023,33.90238],[35.53583,33.89707],[35.53213,33.88113],[35.51865,33.87469],[35.51023,33.86434],[35.50383,33.86476],[35.49827,33.86896],[35.47966,33.86899],[35.48142,33.8623],[35.48227,33.82615],[35.47924,33.80012],[35.47654,33.79088],[35.47318,33.78206],[35.46475,33.76862],[35.4523,33.75454],[35.44786,33.74629],[35.44268,33.72831],[35.44235,33.71091],[35.43703,33.69859],[35.43426,33.69647],[35.42131,33.69359],[35.4146,33.68685],[35.41691,33.68165],[35.41691,33.65951],[35.41228,33.65066],[35.40187,33.64604],[35.40002,33.64353],[35.39841,33.6393],[35.39902,33.61468],[35.39412,33.60806],[35.38687,33.60301],[35.38909,33.60079],[35.38924,33.59721],[35.38678,33.58928],[35.38753,33.58893],[35.38958,33.5883],[35.39292,33.58705],[35.39583,33.58579],[35.40111,33.58247],[35.40434,33.58139],[35.42202,33.57905],[35.43377,33.57142],[35.43604,33.57124],[35.441,33.57259],[35.44369,33.5716],[35.44682,33.57007],[35.45296,33.56657],[35.45717,33.56504],[35.46148,33.56414],[35.46881,33.56145],[35.47043,33.56118],[35.47258,33.56136],[35.4742,33.56271],[35.47474,33.56468],[35.47636,33.56953],[35.47765,33.57088],[35.47959,33.57124],[35.48694,33.57126],[35.49237,33.57288],[35.50842,33.57376],[35.51925,33.5802],[35.52353,33.5802],[35.5256,33.57911],[35.53029,33.57796],[35.5334,33.57796],[35.5356,33.57836],[35.53836,33.57974],[35.54188,33.58175],[35.55376,33.59091],[35.56098,33.59369],[35.56378,33.59351],[35.57995,33.58579],[35.59192,33.58902],[35.5944,33.58929],[35.59655,33.58893],[35.59763,33.58759],[35.60205,33.57905],[35.60431,33.57582],[35.60442,33.57322],[35.60475,33.57016],[35.6019,33.56502],[35.59873,33.56088],[35.59714,33.55904],[35.59411,33.55433],[35.59397,33.55243],[35.59549,33.55025],[35.59811,33.54818],[35.60598,33.54329],[35.60867,33.54093],[35.61074,33.53829],[35.61391,33.52902],[35.61391,33.52758],[35.61553,33.52479],[35.6166,33.52219],[35.61682,33.51994],[35.61563,33.51652],[35.61412,33.51392],[35.61229,33.51005],[35.61154,33.50772],[35.61121,33.50457],[35.61348,33.50196],[35.61973,33.49729],[35.62059,33.49495],[35.62102,33.49261],[35.62178,33.49108],[35.62296,33.48947],[35.62298,33.48947],[35.62447,33.49037],[35.63407,33.50682],[35.63008,33.51302],[35.63612,33.52488],[35.63493,33.53198],[35.64108,33.54007],[35.647,33.55229],[35.65563,33.58597],[35.67448,33.63191],[35.68732,33.64863],[35.6939,33.66101],[35.70899,33.65132],[35.7119,33.65159],[35.70047,33.66326],[35.69832,33.67061],[35.6994,33.67393],[35.72311,33.69062],[35.72796,33.68855],[35.73227,33.69026],[35.73842,33.69726],[35.74823,33.71349],[35.75631,33.72165],[35.76095,33.73133],[35.77451,33.74173],[35.78344,33.74636],[35.79472,33.7584],[35.80197,33.77926],[35.80871,33.78724],[35.80786,33.79144],[35.79927,33.7892],[35.79439,33.78934],[35.78542,33.79335],[35.77809,33.792],[35.77345,33.79505],[35.7713,33.7998],[35.76483,33.80544],[35.76408,33.80804],[35.76839,33.81099],[35.78682,33.80867],[35.78973,33.80938],[35.78909,33.81923],[35.799,33.82568],[35.79422,33.83735],[35.79961,33.84406],[35.80668,33.84742],[35.81359,33.85777],[35.82066,33.86322],[35.82471,33.8698],[35.83245,33.87665],[35.842,33.88229],[35.84648,33.88991],[35.85697,33.89661],[35.85821,33.89999],[35.854,33.90337],[35.85301,33.90669],[35.85894,33.91617],[35.86271,33.91868],[35.87242,33.91483],[35.89191,33.91915],[35.89697,33.92418],[35.9,33.93229],[35.89952,33.9328],[35.89815,33.93425],[35.8845,33.94068],[35.87558,33.94696],[35.87588,33.94824]]]}},{"type":"Feature","properties":{"shapeName":"Liban-Sud"},"geometry":{"type":"Polygon","coordinates":[[[35.6019,33.56502],[35.60246,33.56703],[35.60475,33.57016],[35.60442,33.57322],[35.60431,33.57582],[35.60205,33.57905],[35.59763,33.58759],[35.59655,33.58893],[35.5944,33.58929],[35.59192,33.58902],[35.58275,33.58561],[35.57995,33.58579],[35.56378,33.59351],[35.56098,33.59369],[35.55376,33.59091],[35.54188,33.58175],[35.53836,33.57974],[35.5356,33.57836],[35.5334,33.57796],[35.53029,33.57796],[35.5256,33.57911],[35.52353,33.5802],[35.51925,33.5802],[35.50842,33.57376],[35.49237,33.57288],[35.48694,33.57126],[35.47959,33.57124],[35.47765,33.57088],[35.47636,33.56953],[35.47474,33.56468],[35.4742,33.56271],[35.47258,33.56136],[35.47043,33.56118],[35.46881,33.56145],[35.46148,33.56414],[35.45717,33.56504],[35.45296,33.56657],[35.44682,33.57007],[35.44369,33.5716],[35.441,33.57259],[35.43604,33.57124],[35.43377,33.57142],[35.42202,33.57905],[35.40434,33.58139],[35.40111,33.58247],[35.39583,33.58579],[35.39292,33.58705],[35.38958,33.5883],[35.38753,33.58893],[35.38678,33.58928],[35.38642,33.58735],[35.37872,33.57205],[35.37354,33.56588],[35.36836,33.56268],[35.35957,33.52504],[35.35237,33.50988],[35.34072,33.503],[35.33721,33.49623],[35.31847,33.47776],[35.31447,33.47147],[35.28679,33.45813],[35.27598,33.4391],[35.26458,33.40747],[35.25585,33.39141],[35.25496,33.38238],[35.25082,33.37311],[35.24652,33.3443],[35.24371,33.33911],[35.24371,33.32884],[35.23468,33.32043],[35.23261,33.31325],[35.22239,33.30422],[35.22254,33.29766],[35.21958,33.2937],[35.21973,33.28566],[35.21381,33.27786],[35.20744,33.27316],[35.20344,33.27229],[35.19649,33.27502],[35.1956,33.26846],[35.19678,33.26635],[35.20404,33.26363],[35.21011,33.25496],[35.21129,33.22438],[35.20522,33.20171],[35.19826,33.19502],[35.1919,33.1809],[35.19027,33.17347],[35.1802,33.16244],[35.16821,33.16219],[35.16628,33.16095],[35.1654,33.15612],[35.15992,33.14992],[35.15994,33.14255],[35.15539,33.13977],[35.15056,33.13088],[35.14459,33.12446],[35.12072,33.11414],[35.11304,33.1093],[35.10707,33.10311],[35.10602,33.09296],[35.11296,33.09025],[35.14411,33.08982],[35.14864,33.08702],[35.15231,33.08847],[35.15522,33.08793],[35.15662,33.08287],[35.16071,33.08332],[35.17225,33.08991],[35.17732,33.09091],[35.1923,33.08233],[35.19866,33.0817],[35.20664,33.08431],[35.20826,33.08702],[35.20696,33.09154],[35.2089,33.09416],[35.21537,33.09768],[35.22205,33.09723],[35.23359,33.09028],[35.24135,33.08892],[35.27867,33.09522],[35.29289,33.10198],[35.29848,33.10035],[35.29875,33.10117],[35.30096,33.10446],[35.30268,33.10631],[35.30476,33.10774],[35.30537,33.10908],[35.29826,33.12552],[35.30157,33.13712],[35.30341,33.14041],[35.30574,33.144],[35.30979,33.14975],[35.31138,33.15612],[35.31212,33.15787],[35.31372,33.15941],[35.31727,33.1591],[35.31896,33.15916],[35.32006,33.16067],[35.32124,33.16199],[35.32241,33.16277],[35.32186,33.16435],[35.31998,33.16567],[35.31747,33.16836],[35.31551,33.17046],[35.31558,33.17316],[35.31668,33.17394],[35.3181,33.17401],[35.32014,33.17316],[35.32885,33.17092],[35.33113,33.16928],[35.33442,33.16935],[35.33717,33.17132],[35.3418,33.17717],[35.3483,33.18189],[35.3499,33.18538],[35.35014,33.18805],[35.3483,33.19031],[35.34548,33.19534],[35.34671,33.19667],[35.34904,33.19657],[35.35272,33.19482],[35.35701,33.19431],[35.36069,33.19462],[35.36768,33.20221],[35.3705,33.20303],[35.37382,33.20252],[35.37848,33.2016],[35.38068,33.20283],[35.37983,33.20509],[35.37296,33.21032],[35.36241,33.21186],[35.35983,33.21299],[35.35884,33.21415],[35.36017,33.21736],[35.36213,33.21953],[35.36606,33.22203],[35.36802,33.22288],[35.37053,33.22327],[35.37273,33.22341],[35.3809,33.22078],[35.38341,33.22124],[35.38584,33.22216],[35.3882,33.22551],[35.38914,33.23555],[35.39,33.23765],[35.39079,33.24054],[35.3951,33.24586],[35.39981,33.24481],[35.40201,33.24028],[35.40617,33.23667],[35.40782,33.23503],[35.40986,33.23431],[35.41394,33.23523],[35.41732,33.23792],[35.4174,33.24488],[35.41528,33.24855],[35.41394,33.25026],[35.41426,33.25243],[35.41418,33.2563],[35.42054,33.26483],[35.42328,33.26674],[35.42642,33.26824],[35.42925,33.27136],[35.43232,33.2771],[35.43342,33.28028],[35.43526,33.2813],[35.43661,33.28346],[35.43526,33.28643],[35.43526,33.28869],[35.44103,33.29228],[35.44238,33.29392],[35.44385,33.29617],[35.44446,33.30017],[35.44348,33.30181],[35.44164,33.30366],[35.43809,33.30581],[35.43412,33.30768],[35.43317,33.30919],[35.43192,33.3107],[35.43011,33.31162],[35.42839,33.31254],[35.42564,33.31293],[35.41347,33.30322],[35.40813,33.30079],[35.40539,33.3006],[35.40303,33.30171],[35.40115,33.30394],[35.39903,33.30545],[35.39644,33.30676],[35.39393,33.30827],[35.39259,33.30853],[35.39016,33.30814],[35.38843,33.30729],[35.38529,33.30368],[35.38019,33.30256],[35.37642,33.30309],[35.37265,33.30558],[35.36967,33.30775],[35.36363,33.30939],[35.36025,33.30952],[35.35782,33.30998],[35.35546,33.31024],[35.35146,33.31195],[35.34691,33.3147],[35.3451,33.31641],[35.34463,33.31916],[35.34471,33.32264],[35.34604,33.32506],[35.3491,33.3267],[35.35381,33.32815],[35.35578,33.32926],[35.3586,33.3311],[35.36527,33.3389],[35.36756,33.34875],[35.36756,33.35028],[35.36646,33.35172],[35.35002,33.3468],[35.34119,33.35787],[35.33064,33.36309],[35.32684,33.36176],[35.325,33.36043],[35.31568,33.36032],[35.30394,33.36404],[35.29827,33.36366],[35.29636,33.36429],[35.29611,33.36509],[35.29636,33.36664],[35.29761,33.36824],[35.29897,33.36849],[35.30083,33.36798],[35.30359,33.36719],[35.31334,33.36366],[35.31686,33.36366],[35.31836,33.36517],[35.31841,33.3671],[35.32029,33.36887],[35.32037,33.37247],[35.31763,33.37542],[35.31182,33.37759],[35.31135,33.37903],[35.32108,33.38388],[35.31711,33.38749],[35.31731,33.389],[35.3268,33.39739],[35.33183,33.39362],[35.33524,33.39429],[35.33786,33.3963],[35.33843,33.39777],[35.34141,33.39954],[35.34431,33.39954],[35.34698,33.39823],[35.348,33.39581],[35.34722,33.39253],[35.34698,33.3903],[35.34871,33.38821],[35.35994,33.38113],[35.36197,33.37864],[35.36473,33.37625],[35.36684,33.37495],[35.36951,33.37424],[35.37378,33.37382],[35.37815,33.37365],[35.38297,33.37445],[35.38408,33.37604],[35.38302,33.37671],[35.37614,33.37776],[35.37252,33.38028],[35.3703,33.38624],[35.371,33.38794],[35.37265,33.3905],[35.37469,33.39247],[35.3776,33.39332],[35.40382,33.39941],[35.40649,33.40236],[35.40711,33.40524],[35.40633,33.40636],[35.40429,33.40852],[35.39722,33.41245],[35.39188,33.41783],[35.39134,33.42032],[35.39141,33.42313],[35.39197,33.42679],[35.39148,33.42873],[35.38817,33.43293],[35.3916,33.44357],[35.39332,33.44654],[35.3943,33.44971],[35.39565,33.45248],[35.39675,33.45473],[35.39908,33.45616],[35.40276,33.45565],[35.40742,33.45329],[35.41208,33.45033],[35.41674,33.44848],[35.4214,33.45094],[35.42337,33.45401],[35.42594,33.45677],[35.42631,33.45984],[35.4257,33.46209],[35.42423,33.46374],[35.41983,33.46532],[35.41638,33.46695],[35.41426,33.46793],[35.41214,33.46905],[35.40963,33.47088],[35.40923,33.47258],[35.40978,33.47409],[35.4108,33.47533],[35.4247,33.47625],[35.42689,33.4773],[35.43055,33.48413],[35.43411,33.48467],[35.44338,33.47874],[35.45029,33.47691],[35.45382,33.47691],[35.45657,33.47835],[35.45791,33.48206],[35.45983,33.48606],[35.46308,33.4891],[35.46711,33.49149],[35.47209,33.49229],[35.47822,33.49149],[35.47497,33.4891],[35.46903,33.48558],[35.46883,33.48286],[35.47533,33.47664],[35.47674,33.47605],[35.47863,33.47579],[35.48341,33.47782],[35.4853,33.47979],[35.48757,33.48227],[35.48922,33.48391],[35.48948,33.48603],[35.49083,33.48696],[35.49868,33.48961],[35.50407,33.49534],[35.50972,33.49371],[35.51401,33.49412],[35.51646,33.49545],[35.5221,33.50353],[35.52419,33.50578],[35.52664,33.5069],[35.53057,33.50823],[35.534,33.50833],[35.5378,33.50751],[35.54197,33.50557],[35.54676,33.50414],[35.55166,33.50281],[35.55252,33.50138],[35.55068,33.49892],[35.54847,33.49677],[35.54492,33.49412],[35.54332,33.49074],[35.54148,33.48757],[35.54161,33.48552],[35.54443,33.4845],[35.5459,33.48378],[35.54492,33.48184],[35.54222,33.48],[35.53977,33.47765],[35.53829,33.4757],[35.53584,33.47325],[35.53204,33.47181],[35.52934,33.47007],[35.52725,33.46701],[35.52443,33.46342],[35.52345,33.46015],[35.52419,33.4579],[35.53314,33.45135],[35.53731,33.44961],[35.5394,33.44807],[35.53952,33.44582],[35.52713,33.43252],[35.52591,33.42924],[35.52664,33.42566],[35.53008,33.42228],[35.53425,33.42075],[35.5378,33.41993],[35.5421,33.41901],[35.54455,33.41747],[35.54528,33.41604],[35.54516,33.41276],[35.54271,33.41081],[35.53967,33.40859],[35.53796,33.40721],[35.53479,33.40259],[35.53414,33.40142],[35.53293,33.3994],[35.53193,33.3976],[35.53052,33.39483],[35.52603,33.38306],[35.52689,33.36473],[35.52871,33.36402],[35.53051,33.36297],[35.5375,33.36625],[35.53993,33.36467],[35.54072,33.36179],[35.54119,33.35818],[35.54142,33.35444],[35.54182,33.35143],[35.54315,33.34762],[35.54543,33.34789],[35.54762,33.35051],[35.55029,33.35654],[35.55257,33.36703],[35.55634,33.3728],[35.5707,33.37968],[35.57463,33.38027],[35.57965,33.38047],[35.58475,33.37975],[35.59018,33.37938],[35.59717,33.38194],[35.59913,33.38511],[35.59864,33.38767],[35.60023,33.39331],[35.60931,33.4016],[35.61336,33.41153],[35.6163,33.41317],[35.619,33.41266],[35.62182,33.41235],[35.62452,33.41348],[35.62844,33.41962],[35.63176,33.42218],[35.63384,33.42515],[35.63599,33.42819],[35.63433,33.42791],[35.63237,33.42924],[35.63384,33.43467],[35.63531,33.43927],[35.63531,33.44234],[35.63237,33.44572],[35.62967,33.44715],[35.62489,33.44654],[35.62292,33.44429],[35.62145,33.44112],[35.61832,33.4357],[35.6164,33.43266],[35.61372,33.43218],[35.61257,33.4341],[35.61353,33.43634],[35.61468,33.44081],[35.61602,33.44625],[35.61583,33.44929],[35.61583,33.45457],[35.61698,33.45808],[35.61813,33.46144],[35.62234,33.47023],[35.62043,33.47567],[35.62298,33.48123],[35.62353,33.48457],[35.62361,33.48771],[35.62298,33.48915],[35.62298,33.48947],[35.62296,33.48947],[35.62178,33.49108],[35.62102,33.49261],[35.62059,33.49495],[35.61973,33.49729],[35.61348,33.50196],[35.61121,33.50457],[35.61154,33.50772],[35.61229,33.51005],[35.61412,33.51392],[35.61563,33.51652],[35.61682,33.51994],[35.6166,33.52219],[35.61553,33.52479],[35.61391,33.52758],[35.61391,33.52902],[35.61074,33.53829],[35.60867,33.54093],[35.60598,33.54329],[35.59811,33.54818],[35.59549,33.55025],[35.59397,33.55243],[35.59411,33.55433],[35.59714,33.55904],[35.59873,33.56088],[35.6019,33.56502]]]}},{"type":"Feature","properties":{"shapeName":"Nabatîyé"},"geometry":{"type":"Polygon","coordinates":[[[35.5221,33.50353],[35.51867,33.4978],[35.51646,33.49545],[35.51401,33.49412],[35.50972,33.49371],[35.50407,33.49534],[35.49868,33.48961],[35.49083,33.48696],[35.48948,33.48603],[35.48922,33.48391],[35.48757,33.48227],[35.4853,33.47979],[35.48341,33.47782],[35.47863,33.47579],[35.47674,33.47605],[35.47533,33.47664],[35.46883,33.48286],[35.46903,33.48558],[35.47497,33.4891],[35.47822,33.49149],[35.47209,33.49229],[35.46711,33.49149],[35.46308,33.4891],[35.45983,33.48606],[35.45791,33.48206],[35.45657,33.47835],[35.45382,33.47691],[35.45029,33.47691],[35.44338,33.47874],[35.43411,33.48467],[35.43055,33.48413],[35.42689,33.4773],[35.4247,33.47625],[35.4108,33.47533],[35.40978,33.47409],[35.40923,33.47258],[35.40963,33.47088],[35.41214,33.46905],[35.41426,33.46793],[35.41638,33.46695],[35.41983,33.46532],[35.42423,33.46374],[35.4257,33.46209],[35.42631,33.45984],[35.42594,33.45677],[35.42337,33.45401],[35.4214,33.45094],[35.41674,33.44848],[35.41208,33.45033],[35.40742,33.45329],[35.40276,33.45565],[35.39908,33.45616],[35.39675,33.45473],[35.39565,33.45248],[35.3943,33.44971],[35.39332,33.44654],[35.3916,33.44357],[35.38817,33.43293],[35.39148,33.42873],[35.39197,33.42679],[35.39141,33.42313],[35.39134,33.42032],[35.39188,33.41783],[35.39722,33.41245],[35.40429,33.40852],[35.40633,33.40636],[35.40711,33.40524],[35.40649,33.40236],[35.40382,33.39941],[35.3776,33.39332],[35.37469,33.39247],[35.37265,33.3905],[35.371,33.38794],[35.3703,33.38624],[35.37252,33.38028],[35.37614,33.37776],[35.38302,33.37671],[35.38408,33.37604],[35.38297,33.37445],[35.37815,33.37365],[35.37378,33.37382],[35.36951,33.37424],[35.36684,33.37495],[35.36473,33.37625],[35.36197,33.37864],[35.35994,33.38113],[35.34871,33.38821],[35.34698,33.3903],[35.34722,33.39253],[35.348,33.39581],[35.34698,33.39823],[35.34431,33.39954],[35.34141,33.39954],[35.33843,33.39777],[35.33786,33.3963],[35.33524,33.39429],[35.33183,33.39362],[35.3268,33.39739],[35.31731,33.389],[35.31711,33.38749],[35.32108,33.38388],[35.31135,33.37903],[35.31182,33.37759],[35.31763,33.37542],[35.32037,33.37247],[35.32029,33.36887],[35.31841,33.3671],[35.31836,33.36517],[35.31686,33.36366],[35.31334,33.36366],[35.30359,33.36719],[35.30083,33.36798],[35.29897,33.36849],[35.29761,33.36824],[35.29636,33.36664],[35.29611,33.36509],[35.29636,33.36429],[35.29827,33.36366],[35.30394,33.36404],[35.31568,33.36032],[35.325,33.36043],[35.32684,33.36176],[35.33064,33.36309],[35.34119,33.35787],[35.35002,33.3468],[35.36646,33.35172],[35.36756,33.35028],[35.36756,33.34875],[35.36527,33.3389],[35.3586,33.3311],[35.35578,33.32926],[35.35381,33.32815],[35.3491,33.3267],[35.34604,33.32506],[35.34471,33.32264],[35.34463,33.31916],[35.3451,33.31641],[35.35146,33.31195],[35.35546,33.31024],[35.35782,33.30998],[35.36025,33.30952],[35.36363,33.30939],[35.36967,33.30775],[35.37265,33.30558],[35.37642,33.30309],[35.38019,33.30256],[35.38529,33.30368],[35.38843,33.30729],[35.39016,33.30814],[35.39259,33.30853],[35.39393,33.30827],[35.39644,33.30676],[35.39903,33.30545],[35.40115,33.30394],[35.40303,33.30171],[35.40539,33.3006],[35.40813,33.30079],[35.41347,33.30322],[35.42564,33.31293],[35.42839,33.31254],[35.43011,33.31162],[35.43192,33.3107],[35.43317,33.30919],[35.43412,33.30768],[35.43809,33.30581],[35.44164,33.30366],[35.44348,33.30181],[35.44446,33.30017],[35.44385,33.29617],[35.44238,33.29392],[35.44103,33.29228],[35.43526,33.28869],[35.43526,33.28643],[35.43661,33.28346],[35.43526,33.2813],[35.43342,33.28028],[35.43232,33.2771],[35.42925,33.27136],[35.42642,33.26824],[35.42054,33.26483],[35.41418,33.2563],[35.41426,33.25243],[35.41394,33.25026],[35.41528,33.24855],[35.4174,33.24488],[35.41732,33.23792],[35.41394,33.23523],[35.40986,33.23431],[35.40782,33.23503],[35.40617,33.23667],[35.40201,33.24028],[35.39981,33.24481],[35.3951,33.24586],[35.39079,33.24054],[35.39,33.23765],[35.38914,33.23555],[35.3882,33.22551],[35.38584,33.22216],[35.38341,33.22124],[35.3809,33.22078],[35.37273,33.22341],[35.37053,33.22327],[35.36802,33.22288],[35.36606,33.22203],[35.36213,33.21953],[35.36017,33.21736],[35.35884,33.21415],[35.36241,33.21186],[35.37296,33.21032],[35.37983,33.20509],[35.38068,33.20283],[35.37848,33.2016],[35.37382,33.20252],[35.3705,33.20303],[35.36768,33.20221],[35.36069,33.19462],[35.35701,33.19431],[35.35272,33.19482],[35.34904,33.19657],[35.34671,33.19667],[35.34548,33.19534],[35.3483,33.19031],[35.35014,33.18805],[35.3499,33.18538],[35.3483,33.18189],[35.3418,33.17717],[35.33717,33.17132],[35.33442,33.16935],[35.33113,33.16928],[35.32885,33.17092],[35.32014,33.17316],[35.3181,33.17401],[35.31668,33.17394],[35.31558,33.17316],[35.31551,33.17046],[35.31747,33.16836],[35.31998,33.16567],[35.32186,33.16435],[35.32241,33.16277],[35.32124,33.16199],[35.32006,33.16067],[35.31896,33.15916],[35.31727,33.1591],[35.31372,33.15941],[35.31212,33.15787],[35.31138,33.15612],[35.30979,33.14975],[35.30574,33.144],[35.30341,33.14041],[35.30157,33.13712],[35.29826,33.12552],[35.30537,33.10908],[35.30476,33.10774],[35.30268,33.10631],[35.30096,33.10446],[35.29875,33.10117],[35.29848,33.10035],[35.30682,33.09459],[35.312,33.09453],[35.31807,33.09759],[35.32193,33.09586],[35.328,33.08805],[35.32524,33.08031],[35.32731,33.0773],[35.33615,33.07158],[35.34394,33.05868],[35.34698,33.05701],[35.3576,33.05267],[35.37595,33.04995],[35.38408,33.05631],[35.41038,33.05712],[35.41599,33.06029],[35.43324,33.06101],[35.44488,33.08025],[35.45532,33.08867],[35.48547,33.08966],[35.48648,33.08839],[35.50316,33.08585],[35.50619,33.08698],[35.50552,33.11139],[35.52219,33.11294],[35.52573,33.11591],[35.53119,33.12631],[35.52884,33.13694],[35.52967,33.14284],[35.53853,33.16597],[35.54426,33.18628],[35.54527,33.19572],[35.53853,33.2101],[35.53853,33.22179],[35.54005,33.22686],[35.55032,33.24222],[35.54988,33.24792],[35.55246,33.25252],[35.56227,33.26324],[35.56669,33.28244],[35.56863,33.28532],[35.57327,33.28776],[35.58049,33.28415],[35.58567,33.27983],[35.58814,33.26631],[35.59019,33.26297],[35.59763,33.25684],[35.6193,33.24377],[35.62426,33.23872],[35.62835,33.23899],[35.62879,33.24386],[35.62146,33.25513],[35.62591,33.26031],[35.62591,33.26383],[35.6226,33.26903],[35.62398,33.27029],[35.64551,33.27814],[35.65655,33.27439],[35.66414,33.27451],[35.69056,33.29394],[35.70123,33.29749],[35.70985,33.30343],[35.71233,33.30731],[35.71524,33.31938],[35.72257,33.32605],[35.73508,33.32722],[35.74402,33.32379],[35.74995,33.32397],[35.77906,33.33424],[35.79965,33.34631],[35.80579,33.35171],[35.81539,33.35559],[35.81884,33.36333],[35.8156,33.37125],[35.81959,33.37539],[35.82046,33.38628],[35.82347,33.39187],[35.82811,33.39673],[35.8604,33.41629],[35.84198,33.42883],[35.82984,33.43968],[35.81991,33.44234],[35.81696,33.44173],[35.81304,33.43825],[35.81475,33.43323],[35.8069,33.42095],[35.80703,33.41624],[35.78691,33.41419],[35.77624,33.41726],[35.7733,33.4188],[35.76704,33.42904],[35.75294,33.44071],[35.75232,33.44296],[35.7587,33.45462],[35.75907,33.4578],[35.75637,33.46322],[35.75686,33.46874],[35.75343,33.47284],[35.7468,33.47642],[35.74202,33.47703],[35.73748,33.4756],[35.72325,33.46608],[35.71258,33.4622],[35.704,33.46291],[35.69858,33.46014],[35.69175,33.46414],[35.68806,33.46361],[35.68229,33.45821],[35.68437,33.45002],[35.67333,33.43907],[35.66548,33.42423],[35.65947,33.42218],[35.65261,33.43149],[35.6504,33.4319],[35.64611,33.4319],[35.6374,33.42842],[35.63599,33.42819],[35.63384,33.42515],[35.63176,33.42218],[35.62844,33.41962],[35.62452,33.41348],[35.62182,33.41235],[35.619,33.41266],[35.6163,33.41317],[35.61336,33.41153],[35.60931,33.4016],[35.60023,33.39331],[35.59864,33.38767],[35.59913,33.38511],[35.59717,33.38194],[35.59018,33.37938],[35.58475,33.37975],[35.57965,33.38047],[35.57463,33.38027],[35.5707,33.37968],[35.55634,33.3728],[35.55257,33.36703],[35.55029,33.35654],[35.54762,33.35051],[35.54543,33.34789],[35.54315,33.34762],[35.54182,33.35143],[35.54142,33.35444],[35.54119,33.35818],[35.54072,33.36179],[35.53993,33.36467],[35.5375,33.36625],[35.53051,33.36297],[35.52871,33.36402],[35.52689,33.36473],[35.52603,33.38306],[35.53052,33.39483],[35.53193,33.3976],[35.53293,33.3994],[35.53414,33.40142],[35.53479,33.40259],[35.53796,33.40721],[35.53967,33.40859],[35.54271,33.41081],[35.54516,33.41276],[35.54528,33.41604],[35.54455,33.41747],[35.5421,33.41901],[35.5378,33.41993],[35.53425,33.42075],[35.53008,33.42228],[35.52664,33.42566],[35.52591,33.42924],[35.52713,33.43252],[35.53952,33.44582],[35.5394,33.44807],[35.53731,33.44961],[35.53314,33.45135],[35.52419,33.4579],[35.52345,33.46015],[35.52443,33.46342],[35.52725,33.46701],[35.52934,33.47007],[35.53204,33.47181],[35.53584,33.47325],[35.53829,33.4757],[35.53977,33.47765],[35.54222,33.48],[35.54492,33.48184],[35.5459,33.48378],[35.54443,33.4845],[35.54161,33.48552],[35.54148,33.48757],[35.54332,33.49074],[35.54492,33.49412],[35.54847,33.49677],[35.55068,33.49892],[35.55252,33.50138],[35.55166,33.50281],[35.54676,33.50414],[35.54197,33.50557],[35.5378,33.50751],[35.534,33.50833],[35.53057,33.50823],[35.52664,33.5069],[35.52419,33.50578],[35.5221,33.50353]]]}},{"type":"Feature","properties":{"shapeName":"Béqaa"},"geometry":{"type":"Polygon","coordinates":[[[35.89952,33.9328],[35.9,33.93229],[35.89697,33.92418],[35.89191,33.91915],[35.87242,33.91483],[35.86271,33.91868],[35.85894,33.91617],[35.85301,33.90669],[35.854,33.90337],[35.85821,33.89999],[35.85697,33.89661],[35.84648,33.88991],[35.842,33.88229],[35.83245,33.87665],[35.82471,33.8698],[35.82066,33.86322],[35.81359,33.85777],[35.80668,33.84742],[35.79961,33.84406],[35.79422,33.83735],[35.799,33.82568],[35.78909,33.81923],[35.78973,33.80938],[35.78682,33.80867],[35.76839,33.81099],[35.76408,33.80804],[35.76483,33.80544],[35.7713,33.7998],[35.77345,33.79505],[35.77809,33.792],[35.78542,33.79335],[35.79439,33.78934],[35.79927,33.7892],[35.80786,33.79144],[35.80871,33.78724],[35.80197,33.77926],[35.79472,33.7584],[35.78344,33.74636],[35.77451,33.74173],[35.76095,33.73133],[35.75631,33.72165],[35.74823,33.71349],[35.73842,33.69726],[35.73227,33.69026],[35.72796,33.68855],[35.72311,33.69062],[35.6994,33.67393],[35.69832,33.67061],[35.70047,33.66326],[35.7119,33.65159],[35.70899,33.65132],[35.6939,33.66101],[35.68732,33.64863],[35.67448,33.63191],[35.65563,33.58597],[35.647,33.55229],[35.64108,33.54007],[35.63493,33.53198],[35.63612,33.52488],[35.63008,33.51302],[35.63407,33.50682],[35.62447,33.49037],[35.62298,33.48947],[35.62298,33.48915],[35.62361,33.48771],[35.62353,33.48457],[35.62298,33.48123],[35.62043,33.47567],[35.62234,33.47023],[35.61813,33.46144],[35.61698,33.45808],[35.61583,33.45457],[35.61583,33.44929],[35.61602,33.44625],[35.61468,33.44081],[35.61353,33.43634],[35.61257,33.4341],[35.61372,33.43218],[35.6164,33.43266],[35.61832,33.4357],[35.62145,33.44112],[35.62292,33.44429],[35.62489,33.44654],[35.62967,33.44715],[35.63237,33.44572],[35.63531,33.44234],[35.63531,33.43927],[35.63384,33.43467],[35.63237,33.42924],[35.63433,33.42791],[35.63599,33.42819],[35.6374,33.42842],[35.64611,33.4319],[35.6504,33.4319],[35.65261,33.43149],[35.65947,33.42218],[35.66548,33.42423],[35.67333,33.43907],[35.68437,33.45002],[35.68229,33.45821],[35.68806,33.46361],[35.69175,33.46414],[35.69858,33.46014],[35.704,33.46291],[35.71258,33.4622],[35.72325,33.46608],[35.73748,33.4756],[35.74202,33.47703],[35.7468,33.47642],[35.75343,33.47284],[35.75686,33.46874],[35.75637,33.46322],[35.75907,33.4578],[35.7587,33.45462],[35.75232,33.44296],[35.75294,33.44071],[35.76704,33.42904],[35.7733,33.4188],[35.77624,33.41726],[35.78691,33.41419],[35.80703,33.41624],[35.8069,33.42095],[35.81475,33.43323],[35.81304,33.43825],[35.81696,33.44173],[35.81991,33.44234],[35.82984,33.43968],[35.84198,33.42883],[35.8604,33.41629],[35.86401,33.41895],[35.88436,33.42619],[35.8945,33.43281],[35.90064,33.44323],[35.9109,33.4463],[35.91543,33.45161],[35.92049,33.45476],[35.93321,33.45844],[35.93666,33.46078],[35.93871,33.46753],[35.94302,33.47148],[35.94205,33.4767],[35.9468,33.48182],[35.93677,33.48992],[35.93224,33.50025],[35.93106,33.50736],[35.93289,33.51338],[35.94065,33.51922],[35.94378,33.52515],[35.96685,33.53405],[35.96847,33.5354],[35.96739,33.54016],[35.96868,33.54357],[35.98636,33.54869],[35.98841,33.54869],[35.99326,33.54124],[36.00027,33.53818],[36.01148,33.54429],[36.0228,33.54142],[36.0302,33.54753],[36.03323,33.55244],[36.04452,33.56142],[36.05041,33.5704],[36.05833,33.57728],[36.05277,33.59216],[36.04317,33.60099],[36.03475,33.60492],[36.01959,33.61699],[36.00713,33.62246],[35.99416,33.62512],[35.97752,33.63275],[35.97634,33.6358],[35.97741,33.6401],[35.97062,33.64046],[35.95747,33.63508],[35.94367,33.63669],[35.93753,33.64046],[35.93526,33.64585],[35.93559,33.6498],[35.94453,33.66119],[35.94561,33.6707],[35.95197,33.67402],[35.95672,33.67214],[35.96361,33.67743],[35.96415,33.68219],[35.9593,33.6864],[35.95844,33.68954],[35.96523,33.69358],[35.96545,33.69654],[35.95769,33.70533],[35.94694,33.71218],[35.93955,33.71964],[35.93093,33.71958],[35.93797,33.72383],[35.94652,33.72561],[35.95439,33.73141],[35.98047,33.74116],[35.9904,33.74632],[36.00234,33.75934],[36.00517,33.76846],[36.0082,33.77242],[36.01144,33.77242],[36.02179,33.76657],[36.02593,33.76634],[36.04058,33.78242],[36.05697,33.81359],[36.06477,33.81785],[36.06618,33.8261],[36.0705,33.83034],[36.08471,33.85909],[36.0913,33.86274],[36.08918,33.86874],[36.08738,33.86959],[36.07898,33.86737],[36.07511,33.86772],[36.07124,33.87214],[36.06742,33.87368],[36.06014,33.87059],[36.04346,33.86855],[36.03211,33.87514],[36.03391,33.87877],[36.02809,33.88348],[36.01351,33.87838],[36.00802,33.87063],[35.99397,33.86183],[35.98384,33.87812],[35.97662,33.88457],[35.97795,33.88875],[35.97568,33.89709],[35.96875,33.899],[35.96479,33.90804],[35.95936,33.91117],[35.95705,33.9143],[35.94946,33.91563],[35.94168,33.91171],[35.93831,33.91159],[35.91853,33.91898],[35.90746,33.93311],[35.89952,33.9328]]]}},{"type":"Feature","properties":{"shapeName":"Aakkâr"},"geometry":{"type":"Polygon","coordinates":[[[36.34976,34.50964],[36.35256,34.51565],[36.36366,34.52454],[36.3655,34.52765],[36.38113,34.53661],[36.38695,34.54496],[36.39191,34.54754],[36.40096,34.54922],[36.41002,34.55375],[36.41239,34.55837],[36.41174,34.56529],[36.39773,34.5763],[36.40236,34.58524],[36.40022,34.59262],[36.40511,34.6004],[36.40229,34.60472],[36.40353,34.60915],[36.40822,34.61181],[36.41284,34.6113],[36.42064,34.606],[36.4262,34.60462],[36.43294,34.59352],[36.44961,34.59255],[36.4582,34.60683],[36.46023,34.61335],[36.45905,34.61876],[36.45416,34.6243],[36.45467,34.62624],[36.46275,34.63663],[36.46073,34.63941],[36.44793,34.63885],[36.43732,34.63469],[36.42233,34.62624],[36.41812,34.62596],[36.41256,34.62818],[36.39976,34.6376],[36.39133,34.63248],[36.38375,34.6322],[36.36455,34.64384],[36.35321,34.65508],[36.34749,34.6628],[36.34954,34.67317],[36.35342,34.67698],[36.35288,34.68035],[36.34997,34.68434],[36.33499,34.69347],[36.32076,34.68984],[36.30664,34.68026],[36.30028,34.66439],[36.30577,34.6549],[36.29596,34.63628],[36.28803,34.63095],[36.28231,34.63237],[36.27769,34.62879],[36.27155,34.62993],[36.26513,34.6272],[36.24422,34.6343],[36.24112,34.63379],[36.23049,34.62663],[36.2247,34.62561],[36.20083,34.63662],[36.19593,34.63572],[36.18951,34.63719],[36.17843,34.63345],[36.17203,34.62721],[36.16209,34.63165],[36.13918,34.6358],[36.12352,34.64329],[36.11324,34.63566],[36.1092,34.63483],[36.09892,34.6365],[36.09303,34.62998],[36.08966,34.62943],[36.08141,34.63469],[36.074,34.62901],[36.07147,34.62971],[36.06709,34.6358],[36.06338,34.63636],[36.05227,34.62846],[36.04469,34.62943],[36.0366,34.6286],[36.02313,34.63511],[36.00713,34.64606],[35.99264,34.64661],[35.98843,34.65105],[35.98237,34.65105],[35.97748,34.64176],[35.97546,34.63123],[35.99079,34.5895],[35.99035,34.54416],[35.98485,34.52844],[35.97914,34.52116],[35.97224,34.5169],[35.96221,34.51947],[35.95584,34.51483],[35.96047,34.50908],[35.96157,34.50251],[35.96562,34.49756],[35.97285,34.49564],[35.98169,34.49958],[35.98868,34.49139],[35.98561,34.48199],[35.98992,34.44986],[35.98651,34.44393],[35.98776,34.44245],[36.01563,34.43876],[36.02854,34.44275],[36.04326,34.44114],[36.05025,34.44356],[36.06742,34.44538],[36.08545,34.44215],[36.09943,34.44447],[36.11035,34.44346],[36.11758,34.44528],[36.12261,34.44366],[36.13243,34.43456],[36.1431,34.41969],[36.16549,34.41711],[36.17669,34.41135],[36.18202,34.41139],[36.20553,34.41748],[36.21276,34.41765],[36.21975,34.41553],[36.22859,34.42026],[36.23788,34.41528],[36.24343,34.41713],[36.24767,34.42438],[36.2421,34.43494],[36.24171,34.45364],[36.24681,34.4572],[36.25984,34.45811],[36.26957,34.46665],[36.28733,34.47818],[36.28723,34.48056],[36.29499,34.4922],[36.30341,34.49807],[36.30543,34.50529],[36.31486,34.51306],[36.31773,34.51403],[36.32025,34.51223],[36.32244,34.51265],[36.32935,34.51875],[36.33339,34.51778],[36.33659,34.50598],[36.33844,34.5046],[36.34976,34.50964]]]}},{"type":"Feature","properties":{"shapeName":"Keserwan-Jbeil"},"geometry":{"type":"Polygon","coordinates":[[[36.01503,34.13713],[36.00339,34.14747],[35.9786,34.15403],[35.94604,34.16608],[35.93699,34.16575],[35.92276,34.15443],[35.91694,34.15469],[35.91489,34.15639],[35.90691,34.15612],[35.90131,34.1505],[35.88822,34.15025],[35.87727,34.152],[35.86483,34.15997],[35.8629,34.16625],[35.86566,34.17116],[35.86433,34.17441],[35.84568,34.18377],[35.83727,34.18957],[35.81902,34.18771],[35.80992,34.19365],[35.80778,34.19182],[35.80964,34.18275],[35.80792,34.18121],[35.79943,34.18258],[35.7935,34.18041],[35.78922,34.18566],[35.78991,34.18999],[35.78832,34.19228],[35.77721,34.1961],[35.77376,34.19604],[35.76486,34.19273],[35.75776,34.18537],[35.75403,34.18389],[35.74838,34.1848],[35.74396,34.18006],[35.73568,34.18235],[35.72063,34.19242],[35.71524,34.19385],[35.69454,34.19367],[35.68283,34.2034],[35.68152,34.20962],[35.66683,34.20831],[35.64845,34.21211],[35.64043,34.20549],[35.63461,34.19634],[35.63622,34.18529],[35.63267,34.17218],[35.63385,34.16174],[35.62674,34.14997],[35.62588,34.14577],[35.62932,34.13979],[35.64064,34.13417],[35.64054,34.12909],[35.64291,34.12712],[35.64194,34.12106],[35.65002,34.11338],[35.65048,34.08801],[35.64183,34.0716],[35.63957,34.0574],[35.63331,34.05151],[35.62598,34.039],[35.62695,34.03257],[35.62167,34.02274],[35.6248,34.01774],[35.63661,34.01392],[35.6413,34.01044],[35.64282,34.00586],[35.64227,33.99682],[35.63321,33.98521],[35.62835,33.98449],[35.6207,33.98637],[35.61563,33.98539],[35.61165,33.97913],[35.60334,33.97162],[35.59678,33.95813],[35.60328,33.95388],[35.60987,33.94639],[35.62769,33.94737],[35.63633,33.94412],[35.66388,33.94008],[35.68319,33.94301],[35.68933,33.94719],[35.70505,33.94881],[35.71274,33.9534],[35.72359,33.95448],[35.74301,33.96489],[35.74811,33.96411],[35.76302,33.95545],[35.76946,33.95486],[35.77299,33.95772],[35.77244,33.963],[35.77441,33.9658],[35.78513,33.96598],[35.79412,33.96965],[35.80201,33.96861],[35.80799,33.97794],[35.81276,33.97931],[35.82206,33.97815],[35.82653,33.97519],[35.83005,33.96856],[35.8629,33.95552],[35.87588,33.94824],[35.87597,33.94864],[35.89883,33.96751],[35.89775,33.98306],[35.90411,33.99397],[35.91025,34.00049],[35.92341,34.00952],[35.93688,34.01416],[35.95812,34.03873],[35.96536,34.03903],[35.9675,34.04154],[35.97281,34.05097],[35.98034,34.08225],[35.98439,34.08616],[35.99837,34.08853],[36.00224,34.09941],[36.00253,34.11035],[36.00555,34.11811],[36.01299,34.12962],[36.01503,34.13713]]]}}]}